NORAD_CAT_ID,OBJECT_NAME,OBJECT_TYPE,EPOCH,MEAN_MOTION,ECCENTRICITY,INCLINATION,RA_OF_ASC_NODE,ARG_OF_PERICENTER,MEAN_ANOMALY,BSTAR,MEAN_MOTION_DOT,MEAN_MOTION_DDOT,TLE_LINE0,TLE_LINE1,TLE_LINE2,SEMIMAJOR_AXIS,PERIOD,APOGEE,PERIGEE,DECAYED
53846.0,STARLINK-4746,PAYLOAD,2023-12-07 10:53:51,15.0884714,0.0001267,53.2191,29.5835,85.9305,274.1832,-5.7094e-05,-1.197e-05,0.0,0 STARLINK-4746,1 53846U 22114AE  23341.45407377 -.00001197  00000-0 -57094-4 0  9995,2 53846  53.2191  29.5835 0001267  85.9305 274.1832 15.08847140 68152,6917.859,95.437,540.6,538.847,0.0
53846.0,STARLINK-4746,PAYLOAD,2023-12-08 02:47:43,15.0883498,0.0001514,53.2193,26.6125,71.8711,288.2446,8.2637e-05,1.027e-05,0.0,0 STARLINK-4746,1 53846U 22114AE  23342.11647829  .00001027  00000-0  82637-4 0  9998,2 53846  53.2193  26.6125 0001514  71.8711 288.2446 15.08834980 68250,6917.896,95.438,540.808,538.713,0.0
53846.0,STARLINK-4746,PAYLOAD,2023-12-08 10:44:39,15.08837099,0.0001605,53.2195,25.1255,69.5754,290.541,8.7355e-05,1.102e-05,0.0,0 STARLINK-4746,1 53846U 22114AE  23342.44767828  .00001102  00000-0  87355-4 0  9992,2 53846  53.2195  25.1255 0001605  69.5754 290.5410 15.08837099 68848,6917.889,95.438,540.865,538.644,0.0
53846.0,STARLINK-4746,PAYLOAD,2023-12-09 09:00:03,15.08839738,0.0001682,53.2194,20.9627,68.4975,291.6196,7.1869e-05,8.56e-06,0.0,0 STARLINK-4746,1 53846U 22114AE  23343.37503897  .00000856  00000-0  71869-4 0  9997,2 53846  53.2194  20.9627 0001682  68.4975 291.6196 15.08839738 68442,6917.881,95.438,540.91,538.583,0.0
53846.0,STARLINK-4746,PAYLOAD,2023-12-09 12:10:49,15.08844084,0.0001593,53.2193,20.3671,73.5723,286.5445,0.00010439,1.374e-05,0.0,0 STARLINK-4746,1 53846U 22114AE  23343.50751464  .00001374  00000-0  10439-3 0  9998,2 53846  53.2193  20.3671 0001593  73.5723 286.5445 15.08844084 69006,6917.868,95.437,540.835,538.631,0.0
53846.0,STARLINK-4746,PAYLOAD,2023-12-11 08:41:37,15.08841993,0.0001461,53.2186,12.0343,94.9406,265.1753,5.8841e-05,6.49e-06,0.0,0 STARLINK-4746,1 53846U 22114AE  23345.36223585  .00000649  00000-0  58841-4 0  9996,2 53846  53.2186  12.0343 0001461  94.9406 265.1753 15.08841993 68742,6917.874,95.437,540.75,538.729,0.0
53846.0,STARLINK-4746,PAYLOAD,2023-12-12 08:32:24,15.08838941,0.0001604,53.219,7.5783,104.3776,255.7394,5.1685e-05,5.35e-06,0.0,0 STARLINK-4746,1 53846U 22114AE  23346.35583848  .00000535  00000-0  51685-4 0  9990,2 53846  53.2190   7.5783 0001604 104.3776 255.7394 15.08838941 69431,6917.884,95.438,540.858,538.639,0.0
53846.0,STARLINK-4746,PAYLOAD,2023-12-13 06:47:48,15.08836588,0.0001648,53.2192,3.4164,109.0627,251.0544,2.1022e-05,4.7e-07,0.0,0 STARLINK-4746,1 53846U 22114AE  23347.28320203  .00000047  00000-0  21022-4 0  9997,2 53846  53.2192   3.4164 0001648 109.0627 251.0544 15.08836588 69572,6917.891,95.438,540.896,538.616,0.0
53846.0,STARLINK-4746,PAYLOAD,2023-12-14 05:03:12,15.08837492,0.0001662,53.2192,359.2555,112.2005,247.9163,4.5488e-05,4.36e-06,0.0,0 STARLINK-4746,1 53846U 22114AE  23348.21056306  .00000436  00000-0  45488-4 0  9995,2 53846  53.2192 359.2555 0001662 112.2005 247.9163 15.08837492 69172,6917.888,95.438,540.903,538.603,0.0
53846.0,STARLINK-4746,PAYLOAD,2023-12-14 08:13:58,15.08841408,0.0001493,53.2189,358.6593,96.005,264.1113,6.9509e-05,8.18e-06,0.0,0 STARLINK-4746,1 53846U 22114AE  23348.34304081  .00000818  00000-0  69509-4 0  9999,2 53846  53.2189 358.6593 0001493  96.0050 264.1113 15.08841408 69734,6917.876,95.437,540.774,538.708,0.0
53846.0,STARLINK-4746,PAYLOAD,2023-12-15 08:04:45,15.08841146,0.0001472,53.2186,354.1996,80.9716,279.1443,0.00010033,1.309e-05,0.0,0 STARLINK-4746,1 53846U 22114AE  23349.33664195  .00001309  00000-0  10033-3 0  9997,2 53846  53.2186 354.1996 0001472  80.9716 279.1443 15.08841146 69345,6917.877,95.437,540.76,538.724,0.0
53846.0,STARLINK-4746,PAYLOAD,2023-12-16 07:55:33,15.08840723,0.0001853,53.2196,349.7377,66.3363,293.7824,4.3316e-05,4.01e-06,0.0,0 STARLINK-4746,1 53846U 22114AE  23350.33024709  .00000401  00000-0  43316-4 0  9993,2 53846  53.2196 349.7377 0001853  66.3363 293.7824 15.08840723 69499,6917.878,95.438,541.025,538.461,0.0
53846.0,STARLINK-4746,PAYLOAD,2023-12-17 06:10:57,15.08841236,0.0001826,53.2195,345.5729,69.8476,290.2712,-5.0208e-06,-3.68e-06,0.0,0 STARLINK-4746,1 53846U 22114AE  23351.25760936 -.00000368  00000-0 -50208-5 0  9997,2 53846  53.2195 345.5729 0001826  69.8476 290.2712 15.08841236 70171,6917.877,95.437,541.005,538.478,0.0
53846.0,STARLINK-4746,PAYLOAD,2023-12-18 02:50:57,15.08851112,0.0001521,53.2183,341.7139,85.9294,274.1872,0.00016124,2.28e-05,0.0,0 STARLINK-4746,1 53846U 22114AE  23352.11871649  .00002280  00000-0  16124-3 0  9997,2 53846  53.2183 341.7139 0001521  85.9294 274.1872 15.08851112 69765,6917.846,95.437,540.764,538.659,0.0
53846.0,STARLINK-4746,PAYLOAD,2023-12-18 06:01:42,15.08857951,0.0001657,53.2194,341.1109,80.1606,279.9574,0.00016283,2.306e-05,0.0,0 STARLINK-4746,1 53846U 22114AE  23352.25119154  .00002306  00000-0  16283-3 0  9993,2 53846  53.2194 341.1109 0001657  80.1606 279.9574 15.08857951 70325,6917.826,95.436,540.837,538.544,0.0
53846.0,STARLINK-4746,PAYLOAD,2023-12-19 04:17:07,15.08839701,0.0001537,53.2182,336.9509,113.2982,246.8172,-4.8885e-05,-1.066e-05,0.0,0 STARLINK-4746,1 53846U 22114AE  23353.17856475 -.00001066  00000-0 -48885-4 0  9997,2 53846  53.2182 336.9509 0001537 113.2982 246.8172 15.08839701 69924,6917.881,95.438,540.81,538.683,0.0
53846.0,STARLINK-4746,PAYLOAD,2023-12-19 05:52:31,15.08838686,0.0001486,53.2182,336.6508,114.3336,245.7811,-5.0487e-05,-1.091e-05,0.0,0 STARLINK-4746,1 53846U 22114AE  23353.24480491 -.00001091  00000-0 -50487-4 0  9995,2 53846  53.2182 336.6508 0001486 114.3336 245.7811 15.08838686 70479,6917.884,95.438,540.777,538.721,0.0
53846.0,STARLINK-4746,PAYLOAD,2023-12-20 04:07:55,15.08838404,0.000161,53.2187,332.4931,118.1279,241.9876,-0.00011071,-2.049e-05,0.0,0 STARLINK-4746,1 53846U 22114AE  23354.17216758 -.00002049  00000-0 -11071-3 0  9990,2 53846  53.2187 332.4931 0001610 118.1279 241.9876 15.08838404 70618,6917.885,95.438,540.864,538.636,0.0
53846.0,STARLINK-4746,PAYLOAD,2023-12-21 03:58:42,15.08842371,0.0001282,53.2176,328.0257,104.0867,256.0268,0.00044816,6.852e-05,0.0,0 STARLINK-4746,1 53846U 22114AE  23355.16576660  .00006852  00000-0  44816-3 0  9998,2 53846  53.2176 328.0257 0001282 104.0867 256.0268 15.08842371 70227,6917.873,95.437,540.625,538.851,0.0
53846.0,STARLINK-4746,PAYLOAD,2023-12-21 05:34:05,15.08839211,0.0001519,53.2185,327.7313,114.2126,245.9025,0.0007633,0.00011881,0.0,0 STARLINK-4746,1 53846U 22114AE  23355.23200946  .00011881  00000-0  76330-3 0  9991,2 53846  53.2185 327.7313 0001519 114.2126 245.9025 15.08839211 70777,6917.883,95.438,540.799,538.697,0.0
53846.0,STARLINK-4746,PAYLOAD,2023-12-22 03:49:29,15.08837945,0.0001367,53.2168,323.5683,103.3002,256.8143,-9.6793e-06,-4.42e-06,0.0,0 STARLINK-4746,1 53846U 22114AE  23356.15936995 -.00000442  00000-0 -96793-5 0  9993,2 53846  53.2168 323.5683 0001367 103.3002 256.8143 15.08837945 70375,6917.887,95.438,540.697,538.806,0.0
53846.0,STARLINK-4746,PAYLOAD,2023-12-22 05:24:52,15.08838446,0.0001303,53.2171,323.2707,83.2287,276.8854,-1.416e-05,-5.13e-06,0.0,0 STARLINK-4746,1 53846U 22114AE  23356.22561087 -.00000513  00000-0 -14160-4 0  9993,2 53846  53.2171 323.2707 0001303  83.2287 276.8854 15.08838446 70923,6917.885,95.438,540.652,538.849,0.0
53846.0,STARLINK-4746,PAYLOAD,2023-12-23 06:51:02,15.08853151,0.0001789,53.2187,318.5054,80.8109,279.3086,0.00037828,5.74e-05,0.0,0 STARLINK-4746,1 53846U 22114AE  23357.28544912  .00005740  00000-0  37828-3 0  9998,2 53846  53.2187 318.5054 0001789  80.8109 279.3086 15.08853151 70549,6917.84,95.437,540.943,538.468,0.0
53846.0,STARLINK-4746,PAYLOAD,2023-12-23 21:09:31,15.08834292,0.0001412,53.2169,315.8385,89.8403,270.2751,0.00013561,1.871e-05,0.0,0 STARLINK-4746,1 53846U 22114AE  23357.88161919  .00001871  00000-0  13561-3 0  9995,2 53846  53.2169 315.8385 0001412  89.8403 270.2751 15.08834292 71179,6917.898,95.438,540.74,538.786,0.0
53846.0,STARLINK-4746,PAYLOAD,2023-12-24 03:31:04,15.08847825,0.0001541,53.2174,314.647,85.2133,274.9035,0.00041481,6.321e-05,0.0,0 STARLINK-4746,1 53846U 22114AE  23358.14657543  .00006321  00000-0  41481-3 0  9995,2 53846  53.2174 314.6470 0001541  85.2133 274.9035 15.08847825 70676,6917.856,95.437,540.788,538.655,0.0
53846.0,STARLINK-4746,PAYLOAD,2023-12-24 06:41:50,15.08852097,0.0001502,53.2174,314.0525,88.9056,271.2108,0.00050929,7.829e-05,0.0,0 STARLINK-4746,1 53846U 22114AE  23358.27905544  .00007829  00000-0  50929-3 0  9997,2 53846  53.2174 314.0525 0001502  88.9056 271.2108 15.08852097 71233,6917.843,95.437,540.747,538.669,0.0
53846.0,STARLINK-4746,PAYLOAD,2023-12-25 03:21:51,15.08848414,0.0001793,53.2183,310.1829,92.3489,267.7709,0.00031942,4.8e-05,0.0,0 STARLINK-4746,1 53846U 22114AE  23359.14017448  .00004800  00000-0  31942-3 0  9991,2 53846  53.2183 310.1829 0001793  92.3489 267.7709 15.08848414 70827,6917.855,95.437,540.96,538.479,0.0
53846.0,STARLINK-4746,PAYLOAD,2023-12-25 06:32:37,15.08853936,0.0001765,53.2188,309.5859,96.3001,263.8192,0.00043887,6.706e-05,0.0,0 STARLINK-4746,1 53846U 22114AE  23359.27265275  .00006706  00000-0  43887-3 0  9996,2 53846  53.2188 309.5859 0001765  96.3001 263.8192 15.08853936 71380,6917.838,95.437,540.924,538.482,0.0
53846.0,STARLINK-4746,PAYLOAD,2023-12-25 20:51:06,15.08835775,0.0001357,53.2187,306.9167,101.5321,258.5824,1.6652e-05,-2.3e-07,0.0,0 STARLINK-4746,1 53846U 22114AE  23359.86882031 -.00000023  00000-0  16652-4 0  9994,2 53846  53.2187 306.9167 0001357 101.5321 258.5824 15.08835775 71477,6917.893,95.438,540.697,538.82,0.0
53846.0,STARLINK-4746,PAYLOAD,2023-12-26 03:12:38,15.08842265,0.0001637,53.2181,305.7285,93.035,267.0829,0.00021476,3.132e-05,0.0,0 STARLINK-4746,1 53846U 22114AE  23360.13377875  .00003132  00000-0  21476-3 0  9993,2 53846  53.2181 305.7285 0001637  93.0350 267.0829 15.08842265 70973,6917.873,95.437,540.871,538.606,0.0
